STARLINK-2626_new
1 18363C 21038L   21326.14773905  .00008174  00000-0  54785-3 0  3264
2 18363  53.0525 198.0671 0001663  74.3501 139.4974 15.06378702    11
STARLINK-2626_old
1 28363C 21038L   21325.14165371  .00007346  00000-0  49244-3 0  3258
2 28363  53.0527 202.5836 0001607  74.5606  80.2924 15.06373700    14
